start=new Date('2022-02-03T00:00:00.000Z').valueOf();
sats=[{"MEAN_MOTION_DDOT":"0.0000000000000","COUNTRY_CODE":"US","MEAN_MOTION":"15.06393614","ECCENTRICITY":"0.00016740","RCS_SIZE":"LARGE","TLE_LINE2":"2 47567  53.0556 276.3422 0001674  60.0803 300.0353 15.06393614 55064","ARG_OF_PERICENTER":"60.0803","LAUNCH_DATE":"2021-02-04","CENTER_NAME":"EARTH","OBJECT_NAME":"STARLINK-1966","OBJECT_ID":"2021-009V","MEAN_MOTION_DOT":"0.00002847","BSTAR":"0.00020998000000","MEAN_ANOMALY":"300.0353","EPOCH":"2022-02-02T22:23:14.962848","TIME_SYSTEM":"UTC","PERIAPSIS":"546.074","SITE":"AFETR","CLASSIFICATION_TYPE":"U","REF_FRAME":"TEME","PERIOD":"95.593","ELEMENT_SET_NO":"999","APOAPSIS":"548.392","NORAD_CAT_ID":"47567","EPHEMERIS_TYPE":"0","GP_ID":"195191728","MEAN_ELEMENT_THEORY":"SGP4","REV_AT_EPOCH":"5506","RA_OF_ASC_NODE":"276.3422","DECAY_DATE":null,"TLE_LINE1":"1 47567U 21009V   22033.93281207  .00002847  00000-0  20998-3 0  9995","FILE":"3290513","INCLINATION":"53.0556","SEMIMAJOR_AXIS":"6925.368","OBJECT_TYPE":"PAYLOAD"},{"MEAN_MOTION":"15.06379831","ECCENTRICITY":"0.00017320","MEAN_MOTION_DDOT":"0.0000000000000","COUNTRY_CODE":"US","TLE_LINE2":"2 47568  53.0532 276.5173 0001732  74.5017 285.6163 15.06379831 55068","RCS_SIZE":"LARGE","ARG_OF_PERICENTER":"74.5017","LAUNCH_DATE":"2021-02-04","CENTER_NAME":"EARTH","EPOCH":"2022-02-02T21:24:52.845984","TIME_SYSTEM":"UTC","OBJECT_ID":"2021-009W","OBJECT_NAME":"STARLINK-1967","MEAN_MOTION_DOT":"0.00019392","BSTAR":"0.00131790000000","MEAN_ANOMALY":"285.6163","SITE":"AFETR","PERIAPSIS":"546.076","CLASSIFICATION_TYPE":"U","ELEMENT_SET_NO":"999","APOAPSIS":"548.475","REF_FRAME":"TEME","PERIOD":"95.593","EPHEMERIS_TYPE":"0","NORAD_CAT_ID":"47568","MEAN_ELEMENT_THEORY":"SGP4","GP_ID":"195192979","RA_OF_ASC_NODE":"276.5173","REV_AT_EPOCH":"5506","FILE":"3290513","DECAY_DATE":null,"TLE_LINE1":"1 47568U 21009W   22033.89227831  .00019392  00000-0  13179-2 0  9999","SEMIMAJOR_AXIS":"6925.410","INCLINATION":"53.0532","OBJECT_TYPE":"PAYLOAD"},{"CENTER_NAME":"EARTH","LAUNCH_DATE":"2021-02-04","ARG_OF_PERICENTER":"21.8992","RCS_SIZE":"LARGE","TLE_LINE2":"2 47569  53.0520 229.6177 0002982  21.8992 338.2139 15.42156559 55725","ECCENTRICITY":"0.00029820","MEAN_MOTION":"15.42156559","COUNTRY_CODE":"US","MEAN_MOTION_DDOT":"0.0000000000000","APOAPSIS":"441.781","ELEMENT_SET_NO":"999","PERIOD":"93.376","REF_FRAME":"TEME","CLASSIFICATION_TYPE":"U","SITE":"AFETR","PERIAPSIS":"437.715","EPOCH":"2022-02-02T19:38:51.592416","TIME_SYSTEM":"UTC","BSTAR":"-0.00002426700000","MEAN_MOTION_DOT":"-0.00001469","MEAN_ANOMALY":"338.2139","OBJECT_NAME":"STARLINK-1968","OBJECT_ID":"2021-009X","RA_OF_ASC_NODE":"229.6177","REV_AT_EPOCH":"5572","MEAN_ELEMENT_THEORY":"SGP4","GP_ID":"195192730","NORAD_CAT_ID":"47569","EPHEMERIS_TYPE":"0","OBJECT_TYPE":"PAYLOAD","SEMIMAJOR_AXIS":"6817.883","INCLINATION":"53.0520","FILE":"3290513","TLE_LINE1":"1 47569U 21009X   22033.81865269 -.00001469  00000-0 -24267-4 0  9995","DECAY_DATE":null},{"CENTER_NAME":"EARTH","LAUNCH_DATE":"2021-02-04","ARG_OF_PERICENTER":"70.6389","RCS_SIZE":"LARGE","TLE_LINE2":"2 47570  53.0533 236.8439 0001700  70.6389 289.4783 15.06392276 55619","ECCENTRICITY":"0.00017000","MEAN_MOTION":"15.06392276","COUNTRY_CODE":"US","MEAN_MOTION_DDOT":"0.0000000000000","APOAPSIS":"548.415","ELEMENT_SET_NO":"999","PERIOD":"95.593","REF_FRAME":"TEME","CLASSIFICATION_TYPE":"U","SITE":"AFETR","PERIAPSIS":"546.060","TIME_SYSTEM":"UTC","EPOCH":"2022-02-02T19:38:43.464768","MEAN_ANOMALY":"289.4783","MEAN_MOTION_DOT":"0.00000530","BSTAR":"0.00005448300000","OBJECT_NAME":"STARLINK-1969","OBJECT_ID":"2021-009Y","RA_OF_ASC_NODE":"236.8439","REV_AT_EPOCH":"5561","MEAN_ELEMENT_THEORY":"SGP4","GP_ID":"195191978","NORAD_CAT_ID":"47570","EPHEMERIS_TYPE":"0","OBJECT_TYPE":"PAYLOAD","SEMIMAJOR_AXIS":"6925.372","INCLINATION":"53.0533","FILE":"3290513","TLE_LINE1":"1 47570U 21009Y   22033.81855862  .00000530  00000-0  54483-4 0  9994","DECAY_DATE":null},{"APOAPSIS":"548.492","ELEMENT_SET_NO":"999","PERIOD":"95.593","REF_FRAME":"TEME","CLASSIFICATION_TYPE":"U","SITE":"AFETR","PERIAPSIS":"546.003","EPOCH":"2022-02-02T16:42:14.015520","TIME_SYSTEM":"UTC","MEAN_ANOMALY":"286.1543","MEAN_MOTION_DOT":"0.00000616","BSTAR":"0.00006028700000","OBJECT_ID":"2021-009Z","OBJECT_NAME":"STARLINK-1970","CENTER_NAME":"EARTH","LAUNCH_DATE":"2021-02-04","ARG_OF_PERICENTER":"73.9644","TLE_LINE2":"2 47571  53.0532 247.4031 0001797  73.9644 286.1543 15.06389049 55455","RCS_SIZE":"LARGE","ECCENTRICITY":"0.00017970","MEAN_MOTION":"15.06389049","COUNTRY_CODE":"US","MEAN_MOTION_DDOT":"0.0000000000000","OBJECT_TYPE":"PAYLOAD","SEMIMAJOR_AXIS":"6925.382","INCLINATION":"53.0532","FILE":"3290513","TLE_LINE1":"1 47571U 21009Z   22033.69599555  .00000616  00000-0  60287-4 0  9999","DECAY_DATE":null,"RA_OF_ASC_NODE":"247.4031","REV_AT_EPOCH":"5545","MEAN_ELEMENT_THEORY":"SGP4","GP_ID":"195192228","NORAD_CAT_ID":"47571","EPHEMERIS_TYPE":"0"},{"OBJECT_TYPE":"PAYLOAD","SEMIMAJOR_AXIS":"6925.383","INCLINATION":"53.0566","DECAY_DATE":null,"TLE_LINE1":"1 47572U 21009AA  22033.87660917 -.00000342  00000-0 -40337-5 0  9994","FILE":"3290513","REV_AT_EPOCH":"5548","RA_OF_ASC_NODE":"246.5858","GP_ID":"195192480","MEAN_ELEMENT_THEORY":"SGP4","EPHEMERIS_TYPE":"0","NORAD_CAT_ID":"47572","REF_FRAME":"TEME","PERIOD":"95.593","ELEMENT_SET_NO":"999","APOAPSIS":"548.390","CLASSIFICATION_TYPE":"U","PERIAPSIS":"546.106","SITE":"AFETR","OBJECT_ID":"2021-009AA","OBJECT_NAME":"STARLINK-1971","MEAN_MOTION_DOT":"-0.00000342","MEAN_ANOMALY":"292.1473","BSTAR":"-0.00000403370000","TIME_SYSTEM":"UTC","EPOCH":"2022-02-02T21:02:19.032288","CENTER_NAME":"EARTH","ARG_OF_PERICENTER":"67.9691","LAUNCH_DATE":"2021-02-04","RCS_SIZE":"LARGE","TLE_LINE2":"2 47572  53.0566 246.5858 0001649  67.9691 292.1473 15.06388705 55481","MEAN_MOTION_DDOT":"0.0000000000000","COUNTRY_CODE":"US","MEAN_MOTION":"15.06388705","ECCENTRICITY":"0.00016490"},{"OBJECT_ID":"2021-009AB","OBJECT_NAME":"STARLINK-1975","BSTAR":"0.00002242000000","MEAN_MOTION_DOT":"0.00000052","MEAN_ANOMALY":"290.9166","EPOCH":"2022-02-02T20:30:28.361952","TIME_SYSTEM":"UTC","PERIAPSIS":"545.883","SITE":"AFETR","CLASSIFICATION_TYPE":"U","REF_FRAME":"TEME","PERIOD":"95.593","ELEMENT_SET_NO":"999","APOAPSIS":"548.618","MEAN_MOTION_DDOT":"0.0000000000000","COUNTRY_CODE":"US","MEAN_MOTION":"15.06387897","ECCENTRICITY":"0.00019750","RCS_SIZE":"LARGE","TLE_LINE2":"2 47573  53.0553 246.6809 0001975  69.2034 290.9166 15.06387897 55478","ARG_OF_PERICENTER":"69.2034","LAUNCH_DATE":"2021-02-04","CENTER_NAME":"EARTH","DECAY_DATE":null,"TLE_LINE1":"1 47573U 21009AB  22033.85449493  .00000052  00000-0  22420-4 0  9995","FILE":"3290513","SEMIMAJOR_AXIS":"6925.386","INCLINATION":"53.0553","OBJECT_TYPE":"PAYLOAD","NORAD_CAT_ID":"47573","EPHEMERIS_TYPE":"0","GP_ID":"195193230","MEAN_ELEMENT_THEORY":"SGP4","REV_AT_EPOCH":"5547","RA_OF_ASC_NODE":"246.6809"},{"NORAD_CAT_ID":"47574","EPHEMERIS_TYPE":"0","MEAN_ELEMENT_THEORY":"SGP4","GP_ID":"195191479","RA_OF_ASC_NODE":"276.3166","REV_AT_EPOCH":"5506","FILE":"3290513","TLE_LINE1":"1 47574U 21009AC  22033.93650150 -.00001595  00000-0 -88218-4 0  9991","DECAY_DATE":null,"INCLINATION":"53.0548","SEMIMAJOR_AXIS":"6925.396","OBJECT_TYPE":"PAYLOAD","ECCENTRICITY":"0.00018420","MEAN_MOTION":"15.06384407","COUNTRY_CODE":"US","MEAN_MOTION_DDOT":"0.0000000000000","TLE_LINE2":"2 47574  53.0548 276.3166 0001842  66.9846 293.1337 15.06384407 55061","RCS_SIZE":"LARGE","LAUNCH_DATE":"2021-02-04","ARG_OF_PERICENTER":"66.9846","CENTER_NAME":"EARTH","EPOCH":"2022-02-02T22:28:33.729600","TIME_SYSTEM":"UTC","MEAN_ANOMALY":"293.1337","MEAN_MOTION_DOT":"-0.00001595","BSTAR":"-0.00008821800000","OBJECT_NAME":"STARLINK-1976","OBJECT_ID":"2021-009AC","SITE":"AFETR","PERIAPSIS":"545.986","CLASSIFICATION_TYPE":"U","APOAPSIS":"548.537","ELEMENT_SET_NO":"999","PERIOD":"95.593","REF_FRAME":"TEME"},{"MEAN_ELEMENT_THEORY":"SGP4","GP_ID":"195191729","RA_OF_ASC_NODE":"276.3652","REV_AT_EPOCH":"5506","NORAD_CAT_ID":"47575","EPHEMERIS_TYPE":"0","SEMIMAJOR_AXIS":"6925.382","INCLINATION":"53.0552","OBJECT_TYPE":"PAYLOAD","FILE":"3290513","DECAY_DATE":null,"TLE_LINE1":"1 47575U 21009AD  22033.92544656 -.00000355  00000-0 -49317-5 0  9995","ARG_OF_PERICENTER":"73.3471","LAUNCH_DATE":"2021-02-04","CENTER_NAME":"EARTH","MEAN_MOTION":"15.06389055","ECCENTRICITY":"0.00018170","MEAN_MOTION_DDOT":"0.0000000000000","COUNTRY_CODE":"US","TLE_LINE2":"2 47575  53.0552 276.3652 0001817  73.3471 286.7717 15.06389055 55069","RCS_SIZE":"LARGE","CLASSIFICATION_TYPE":"U","ELEMENT_SET_NO":"999","APOAPSIS":"548.505","REF_FRAME":"TEME","PERIOD":"95.593","EPOCH":"2022-02-02T22:12:38.582784","TIME_SYSTEM":"UTC","OBJECT_NAME":"STARLINK-1977","OBJECT_ID":"2021-009AD","MEAN_MOTION_DOT":"-0.00000355","BSTAR":"-0.00000493170000","MEAN_ANOMALY":"286.7717","SITE":"AFETR","PERIAPSIS":"545.989"},{"CENTER_NAME":"EARTH","ARG_OF_PERICENTER":"66.9679","LAUNCH_DATE":"2021-02-04","TLE_LINE2":"2 47576  53.0541 236.8047 0001908  66.9679 293.1511 15.06396112 55613","RCS_SIZE":"LARGE","MEAN_MOTION_DDOT":"0.0000000000000","COUNTRY_CODE":"US","MEAN_MOTION":"15.06396112","ECCENTRICITY":"0.00019080","REF_FRAME":"TEME","PERIOD":"95.592","ELEMENT_SET_NO":"999","APOAPSIS":"548.547","CLASSIFICATION_TYPE":"U","PERIAPSIS":"545.904","SITE":"AFETR","OBJECT_NAME":"STARLINK-1978","OBJECT_ID":"2021-009AE","BSTAR":"0.00018886000000","MEAN_MOTION_DOT":"0.00002532","MEAN_ANOMALY":"293.1511","EPOCH":"2022-02-02T19:49:19.826688","TIME_SYSTEM":"UTC","REV_AT_EPOCH":"5561","RA_OF_ASC_NODE":"236.8047","GP_ID":"195192980","MEAN_ELEMENT_THEORY":"SGP4","NORAD_CAT_ID":"47576","EPHEMERIS_TYPE":"0","OBJECT_TYPE":"PAYLOAD","INCLINATION":"53.0541","SEMIMAJOR_AXIS":"6925.360","DECAY_DATE":null,"TLE_LINE1":"1 47576U 21009AE  22033.82592392  .00002532  00000-0  18886-3 0  9997","FILE":"3290513"}];
